NORAD_CAT_ID,OBJECT_NAME,OBJECT_TYPE,EPOCH,MEAN_MOTION,ECCENTRICITY,INCLINATION,RA_OF_ASC_NODE,ARG_OF_PERICENTER,MEAN_ANOMALY,BSTAR,MEAN_MOTION_DOT,MEAN_MOTION_DDOT,TLE_LINE0,TLE_LINE1,TLE_LINE2,SEMIMAJOR_AXIS,PERIOD,APOGEE,PERIGEE,DECAYED
53821.0,STARLINK-4752,PAYLOAD,2023-06-06 02:18:56,15.08839236,0.0001301,53.2171,92.1951,87.8934,272.2207,-1.1059e-05,-4.64e-06,0.0,0 STARLINK-4752,1 53821U 22114D   23157.09648873 -.00000464  00000-0 -11059-4 0  9998,2 53821  53.2171  92.1951 0001301  87.8934 272.2207 15.08839236 41496,6917.883,95.438,540.648,538.848,0.0
53821.0,STARLINK-4752,PAYLOAD,2023-06-07 02:09:43,15.08836393,0.0001283,53.2173,87.7346,86.8826,273.2313,-2.5134e-05,-6.88e-06,0.0,0 STARLINK-4752,1 53821U 22114D   23158.09009193 -.00000688  00000-0 -25134-4 0  9992,2 53821  53.2173  87.7346 0001283  86.8826 273.2313 15.08836393 41102,6917.891,95.438,540.644,538.869,0.0
53821.0,STARLINK-4752,PAYLOAD,2023-06-07 19:38:58,15.08835484,0.0001247,53.2173,84.4638,91.266,268.8475,-8.7133e-06,-4.27e-06,0.0,0 STARLINK-4752,1 53821U 22114D   23158.81873283 -.00000427  00000-0 -87133-5 0  9990,2 53821  53.2173  84.4638 0001247  91.2660 268.8475 15.08835484 41756,6917.894,95.438,540.622,538.897,0.0
53821.0,STARLINK-4752,PAYLOAD,2023-06-08 02:00:30,15.08837076,0.0001243,53.2173,83.2745,90.9213,269.1921,4.8744e-06,-2.1e-06,0.0,0 STARLINK-4752,1 53821U 22114D   23159.08369181 -.00000210  00000-0  48744-5 0  9991,2 53821  53.2173  83.2745 0001243  90.9213 269.1921 15.08837076 41791,6917.889,95.438,540.614,538.894,0.0
53821.0,STARLINK-4752,PAYLOAD,2023-06-08 22:40:32,15.08834746,0.0001232,53.2174,79.4089,90.4882,269.6252,8.4e-07,-2.74e-06,0.0,0 STARLINK-4752,1 53821U 22114D   23159.94481556 -.00000274  00000-0  84000-6 0  9993,2 53821  53.2174  79.4089 0001232  90.4882 269.6252 15.08834746 41383,6917.896,95.438,540.614,538.909,0.0
53821.0,STARLINK-4752,PAYLOAD,2023-06-09 11:23:37,15.08834028,0.0001268,53.2179,77.0304,91.8215,268.2923,-3.0967e-06,-3.37e-06,0.0,0 STARLINK-4752,1 53821U 22114D   23160.47473741 -.00000337  00000-0 -30967-5 0  9993,2 53821  53.2179  77.0304 0001268  91.8215 268.2923 15.08834028 42009,6917.899,95.438,540.641,538.886,0.0
53821.0,STARLINK-4752,PAYLOAD,2023-06-10 03:17:28,15.08834213,0.0001253,53.2178,74.0565,90.5408,269.5727,-1.8803e-05,-5.87e-06,0.0,0 STARLINK-4752,1 53821U 22114D   23161.13714001 -.00000587  00000-0 -18803-4 0  9995,2 53821  53.2178  74.0565 0001253  90.5408 269.5727 15.08834213 41560,6917.898,95.438,540.63,538.896,0.0
53821.0,STARLINK-4752,PAYLOAD,2023-06-10 11:14:24,15.08835899,0.0001239,53.2176,72.57,93.2683,266.8451,5.1561e-06,-2.06e-06,0.0,0 STARLINK-4752,1 53821U 22114D   23161.46833874 -.00000206  00000-0  51561-5 0  9997,2 53821  53.2176  72.5700 0001239  93.2683 266.8451 15.08835899 42152,6917.893,95.438,540.615,538.901,0.0
53821.0,STARLINK-4752,PAYLOAD,2023-06-10 19:11:20,15.08838153,0.0001215,53.2177,71.0826,93.91,266.2031,1.1485e-05,-1.05e-06,0.0,0 STARLINK-4752,1 53821U 22114D   23161.79953760 -.00000105  00000-0  11485-4 0  9998,2 53821  53.2177  71.0826 0001215  93.9100 266.2031 15.08838153 42201,6917.886,95.438,540.592,538.911,0.0
53821.0,STARLINK-4752,PAYLOAD,2023-06-11 04:43:38,15.08839118,0.0001229,53.2178,69.2986,93.1861,266.9271,1.9386e-05,2.1e-07,0.0,0 STARLINK-4752,1 53821U 22114D   23162.19697696  .00000021  00000-0  19386-4 0  9990,2 53821  53.2178  69.2986 0001229  93.1861 266.9271 15.08839118 41720,6917.883,95.438,540.598,538.898,0.0
53821.0,STARLINK-4752,PAYLOAD,2023-06-11 11:05:11,15.08836748,0.0001211,53.218,68.1091,92.8766,267.2364,7.8446e-06,-1.63e-06,0.0,0 STARLINK-4752,1 53821U 22114D   23162.46193904 -.00000163  00000-0  78446-5 0  9994,2 53821  53.2180  68.1091 0001211  92.8766 267.2364 15.08836748 42307,6917.89,95.438,540.593,538.918,0.0
53821.0,STARLINK-4752,PAYLOAD,2023-06-11 20:37:30,15.08835088,0.0001213,53.2181,66.325,93.0148,267.0983,2.2443e-05,6.9e-07,0.0,0 STARLINK-4752,1 53821U 22114D   23162.85938029  .00000069  00000-0  22443-4 0  9991,2 53821  53.2181  66.3250 0001213  93.0148 267.0983 15.08835088 42361,6917.895,95.438,540.6,538.921,0.0
53821.0,STARLINK-4752,PAYLOAD,2023-06-12 10:55:58,15.08839252,0.0001229,53.2182,63.6488,92.6007,267.5126,2.7227e-05,1.45e-06,0.0,0 STARLINK-4752,1 53821U 22114D   23163.45553807  .00000145  00000-0  27227-4 0  9995,2 53821  53.2182  63.6488 0001229  92.6007 267.5126 15.08839252 42452,6917.883,95.438,540.598,538.897,0.0
53821.0,STARLINK-4752,PAYLOAD,2023-06-12 14:06:44,15.08840218,0.0001204,53.2183,63.0542,92.0016,268.1114,3.2102e-05,2.23e-06,0.0,0 STARLINK-4752,1 53821U 22114D   23163.58801720  .00000223  00000-0  32102-4 0  9994,2 53821  53.2183  63.0542 0001204  92.0016 268.1114 15.08840218 41935,6917.88,95.438,540.578,538.912,0.0
53821.0,STARLINK-4752,PAYLOAD,2023-06-13 02:49:49,15.08843891,0.0001224,53.2182,60.6754,91.1384,268.9749,2.8848e-05,1.71e-06,0.0,0 STARLINK-4752,1 53821U 22114D   23164.11793394  .00000171  00000-0  28848-4 0  9995,2 53821  53.2182  60.6754 0001224  91.1384 268.9749 15.08843891 42553,6917.868,95.437,540.58,538.887,0.0
53821.0,STARLINK-4752,PAYLOAD,2023-06-13 23:29:51,15.08832374,0.0001239,53.2181,56.8093,92.1912,267.9222,-3.8782e-05,-9.05e-06,0.0,0 STARLINK-4752,1 53821U 22114D   23164.97906428 -.00000905  00000-0 -38782-4 0  9998,2 53821  53.2181  56.8093 0001239  92.1912 267.9222 15.08832374 42143,6917.904,95.438,540.626,538.912,0.0
53821.0,STARLINK-4752,PAYLOAD,2023-06-14 02:40:37,15.08834144,0.0001246,53.218,56.2144,91.9147,268.1988,-3.945e-05,-9.16e-06,0.0,0 STARLINK-4752,1 53821U 22114D   23165.11154366 -.00000916  00000-0 -39450-4 0  9996,2 53821  53.2180  56.2144 0001246  91.9147 268.1988 15.08834144 42709,6917.898,95.438,540.625,538.901,0.0
53821.0,STARLINK-4752,PAYLOAD,2023-06-15 00:56:00,15.08839736,0.0001238,53.2179,52.0522,87.6431,272.4702,-1.2665e-05,-4.89e-06,0.0,0 STARLINK-4752,1 53821U 22114D   23166.03890001 -.00000489  00000-0 -12665-4 0  9995,2 53821  53.2179  52.0522 0001238  87.6431 272.4702 15.08839736 42300,6917.881,95.438,540.603,538.89,0.0
53821.0,STARLINK-4752,PAYLOAD,2023-06-15 16:49:52,15.08833953,0.0001222,53.2183,49.0789,84.8839,275.2293,6.5377e-06,-1.84e-06,0.0,0 STARLINK-4752,1 53821U 22114D   23166.70130428 -.00000184  00000-0  65377-5 0  9999,2 53821  53.2183  49.0789 0001222  84.8839 275.2293 15.08833953 42941,6917.899,95.438,540.609,538.919,0.0
53821.0,STARLINK-4752,PAYLOAD,2023-06-16 08:43:43,15.08837146,0.0001233,53.2184,46.1056,85.0672,275.0461,1.4874e-05,-5.1e-07,0.0,0 STARLINK-4752,1 53821U 22114D   23167.36370337 -.00000051  00000-0  14874-4 0  9995,2 53821  53.2184  46.1056 0001233  85.0672 275.0461 15.08837146 42502,6917.889,95.438,540.607,538.901,0.0
53821.0,STARLINK-4752,PAYLOAD,2023-06-17 08:34:31,15.08836601,0.0001235,53.218,41.6451,85.7139,274.3995,-3.2226e-06,-3.39e-06,0.0,0 STARLINK-4752,1 53821U 22114D   23168.35730489 -.00000339  00000-0 -32226-5 0  9995,2 53821  53.2180  41.6451 0001235  85.7139 274.3995 15.08836601 43199,6917.891,95.438,540.61,538.901,0.0
53821.0,STARLINK-4752,PAYLOAD,2023-06-18 00:28:23,15.08832125,0.0001231,53.2181,38.6715,88.3927,271.7206,-3.6989e-05,-8.76e-06,0.0,0 STARLINK-4752,1 53821U 22114D   23169.01971081 -.00000876  00000-0 -36989-4 0  9999,2 53821  53.2181  38.6715 0001231  88.3927 271.7206 15.08832125 42753,6917.904,95.438,540.621,538.918,0.0
53821.0,STARLINK-4752,PAYLOAD,2023-06-18 08:25:18,15.0883516,0.0001221,53.2182,37.1851,91.5953,268.518,-1.4687e-05,-5.22e-06,0.0,0 STARLINK-4752,1 53821U 22114D   23169.35090913 -.00000522  00000-0 -14687-4 0  9991,2 53821  53.2182  37.1851 0001221  91.5953 268.5180 15.08835160 43346,6917.895,95.438,540.605,538.916,0.0
53821.0,STARLINK-4752,PAYLOAD,2023-06-18 21:08:23,15.08837677,0.0001213,53.2179,34.806,92.3574,267.7557,-1.2549e-05,-4.88e-06,0.0,0 STARLINK-4752,1 53821U 22114D   23169.88082823 -.00000488  00000-0 -12549-4 0  9996,2 53821  53.2179  34.8060 0001213  92.3574 267.7557 15.08837677 43420,6917.887,95.438,540.592,538.913,0.0
53821.0,STARLINK-4752,PAYLOAD,2023-06-19 00:19:09,15.08837673,0.0001233,53.218,34.2111,92.1876,267.9257,-5.4196e-06,-3.74e-06,0.0,0 STARLINK-4752,1 53821U 22114D   23170.01330816 -.00000374  00000-0 -54196-5 0  9990,2 53821  53.2180  34.2111 0001233  92.1876 267.9257 15.08837673 42905,6917.888,95.438,540.605,538.9,0.0
53821.0,STARLINK-4752,PAYLOAD,2023-06-19 08:16:05,15.08836112,0.0001212,53.2183,32.7243,92.1797,267.9334,4.2323e-05,3.86e-06,0.0,0 STARLINK-4752,1 53821U 22114D   23170.34450742  .00000386  00000-0  42323-4 0  9996,2 53821  53.2183  32.7243 0001212  92.1797 267.9334 15.08836112 43494,6917.892,95.438,540.596,538.919,0.0
53821.0,STARLINK-4752,PAYLOAD,2023-06-19 20:59:10,15.08838169,0.0001206,53.2183,30.3453,92.7347,267.3784,6.7404e-05,7.85e-06,0.0,0 STARLINK-4752,1 53821U 22114D   23170.87442601  .00000785  00000-0  67404-4 0  9999,2 53821  53.2183  30.3453 0001206  92.7347 267.3784 15.08838169 43577,6917.886,95.438,540.585,538.917,0.0
53821.0,STARLINK-4752,PAYLOAD,2023-06-20 08:06:52,15.0883677,0.0001207,53.2182,28.2639,91.6624,268.4506,2.5771e-05,1.22e-06,0.0,0 STARLINK-4752,1 53821U 22114D   23171.33810853  .00000122  00000-0  25771-4 0  9995,2 53821  53.2182  28.2639 0001207  91.6624 268.4506 15.08836770 43104,6917.89,95.438,540.59,538.92,0.0
53821.0,STARLINK-4752,PAYLOAD,2023-06-20 20:49:57,15.08839383,0.0001214,53.2182,25.8847,93.1422,266.9709,1.0479e-05,-1.21e-06,0.0,0 STARLINK-4752,1 53821U 22114D   23171.86802755 -.00000121  00000-0  10479-4 0  9994,2 53821  53.2182  25.8847 0001214  93.1422 266.9709 15.08839383 43728,6917.882,95.438,540.587,538.907,0.0
53821.0,STARLINK-4752,PAYLOAD,2023-06-21 17:29:58,15.08840625,0.0001213,53.2182,22.0187,94.1162,265.9968,-4.5223e-06,-3.6e-06,0.0,0 STARLINK-4752,1 53821U 22114D   23172.72914638 -.00000360  00000-0 -45223-5 0  9996,2 53821  53.2182  22.0187 0001213  94.1162 265.9968 15.08840625 43317,6917.878,95.438,540.583,538.904,0.0
